ALOS (DAICHI)           
1 28931U 06002A   26011.85902129  .00001343  00000+0  23432-3 0  9994
2 28931  98.1131 328.1427 0002095  94.1489 265.9956 14.69597289 65133
H-2A R/B                
1 28932U 06002B   26011.97116819  .00009037  00000+0  46664-3 0  9991
2 28932  98.2328 154.2075 0054656  74.6808 286.0453 15.15258486 85849
RESURS-DK 1             
1 29228U 06021A   26011.99256587  .00002570  00000+0  15398-3 0  9995
2 29228  69.9340  23.6422 0006134 233.0442 127.0162 15.12364517 78950
CZ-4B R/B               
1 29507U 06046C   26011.99861284  .00005987  00000+0  30834-3 0  9995
2 29507  97.5700  57.0555 0035273 103.4814 257.0353 15.16232963 51459
CZ-2C R/B               
1 31114U 07010B   26011.94269862  .00000123  00000+0  75001-4 0  9996
2 31114  98.3972 128.0739 0060129  99.1617 261.6370 14.20224034971667
COSMO-SKYMED 1          
1 31598U 07023A   26011.95600628  .00003540  00000+0  32060-3 0  9999
2 31598  97.8854 202.5592 0001477  78.1257 282.0129 14.96041286  6420
COSMOS 2428             
1 31792U 07029A   26011.96888618  .00000347  00000+0  21224-3 0  9991
2 31792  70.9394 322.4114 0005471 342.6533  17.4400 14.12907836956081
SL-16 R/B               
1 31793U 07029B   26012.00620450 -.00000187  00000+0 -72017-4 0  9997
2 31793  70.9769 291.5365 0002248 273.4756 164.2003 14.14825268957350
KORONAS-FOTON           
1 33504U 09003A   26011.93914655  .00010896  00000+0  25536-3 0  9996
2 33504  82.4317 334.7983 0011547  13.6789 346.4768 15.41863881936990
CZ-2C R/B               
1 37731U 11030B   26011.86171565  .00001194  00000+0  15738-3 0  9996
2 37731  97.8452 330.3103 0052809 173.7291 240.5360 14.81005647781681
H-2A R/B                
1 38341U 12025E   26011.90140817  .00003706  00000+0  34093-3 0  9996
2 38341  98.4635 334.4685 0046005 136.9971 223.4857 14.94666552739738
SHIJIAN-16 (SJ-16)      
1 39358U 13057A   26011.97698794  .00000658  00000+0  67412-4 0  9995
2 39358  74.9735 292.4370 0017793 249.9626 109.9647 14.92126573663042
