CCSDS_OMM_VERS = 2.0
CREATION_DATE  = 
ORIGINATOR     = 

OBJECT_NAME    = ALOS (DAICHI)
OBJECT_ID      = 2006-002A
CENTER_NAME    = EARTH
REF_FRAME      = TEME
TIME_SYSTEM    = UTC
MEAN_ELEMENT_THEORY = SGP/SGP4

EPOCH          = 2026-01-11T20:36:59.439456
MEAN_MOTION    = 14.69597289
ECCENTRICITY   = .00020952
INCLINATION    = 98.1131
RA_OF_ASC_NODE = 328.1427
ARG_OF_PERICENTER = 94.1489
MEAN_ANOMALY   = 265.9956

EPHEMERIS_TYPE = 0
CLASSIFICATION_TYPE = U
NORAD_CAT_ID   = 28931
ELEMENT_SET_NO = 999
REV_AT_EPOCH   = 6513
BSTAR          = .234316E-3
MEAN_MOTION_DOT = .1343E-4
MEAN_MOTION_DDOT = 0

CCSDS_OMM_VERS = 2.0
CREATION_DATE  = 
ORIGINATOR     = 

OBJECT_NAME    = H-2A R/B
OBJECT_ID      = 2006-002B
CENTER_NAME    = EARTH
REF_FRAME      = TEME
TIME_SYSTEM    = UTC
MEAN_ELEMENT_THEORY = SGP/SGP4

EPOCH          = 2026-01-11T23:18:28.931616
MEAN_MOTION    = 15.15258486
ECCENTRICITY   = .00546563
INCLINATION    = 98.2328
RA_OF_ASC_NODE = 154.2075
ARG_OF_PERICENTER = 74.6808
MEAN_ANOMALY   = 286.0453

EPHEMERIS_TYPE = 0
CLASSIFICATION_TYPE = U
NORAD_CAT_ID   = 28932
ELEMENT_SET_NO = 999
REV_AT_EPOCH   = 8584
BSTAR          = .46664139E-3
MEAN_MOTION_DOT = .9037E-4
MEAN_MOTION_DDOT = 0

CCSDS_OMM_VERS = 2.0
CREATION_DATE  = 
ORIGINATOR     = 

OBJECT_NAME    = RESURS-DK 1
OBJECT_ID      = 2006-021A
CENTER_NAME    = EARTH
REF_FRAME      = TEME
TIME_SYSTEM    = UTC
MEAN_ELEMENT_THEORY = SGP/SGP4

EPOCH          = 2026-01-11T23:49:17.691168
MEAN_MOTION    = 15.12364517
ECCENTRICITY   = .00061349
INCLINATION    = 69.9340
RA_OF_ASC_NODE = 23.6422
ARG_OF_PERICENTER = 233.0442
MEAN_ANOMALY   = 127.0162

EPHEMERIS_TYPE = 0
CLASSIFICATION_TYPE = U
NORAD_CAT_ID   = 29228
ELEMENT_SET_NO = 999
REV_AT_EPOCH   = 7895
BSTAR          = .15397825E-3
MEAN_MOTION_DOT = .257E-4
MEAN_MOTION_DDOT = 0

CCSDS_OMM_VERS = 2.0
CREATION_DATE  = 
ORIGINATOR     = 

OBJECT_NAME    = CZ-4B R/B
OBJECT_ID      = 2006-046C
CENTER_NAME    = EARTH
REF_FRAME      = TEME
TIME_SYSTEM    = UTC
MEAN_ELEMENT_THEORY = SGP/SGP4

EPOCH          = 2026-01-11T23:58:00.149376
MEAN_MOTION    = 15.16232963
ECCENTRICITY   = .00352735
INCLINATION    = 97.5700
RA_OF_ASC_NODE = 57.0555
ARG_OF_PERICENTER = 103.4814
MEAN_ANOMALY   = 257.0353

EPHEMERIS_TYPE = 0
CLASSIFICATION_TYPE = U
NORAD_CAT_ID   = 29507
ELEMENT_SET_NO = 999
REV_AT_EPOCH   = 5145
BSTAR          = .30833862E-3
MEAN_MOTION_DOT = .5987E-4
MEAN_MOTION_DDOT = 0

CCSDS_OMM_VERS = 2.0
CREATION_DATE  = 
ORIGINATOR     = 

OBJECT_NAME    = CZ-2C R/B
OBJECT_ID      = 2007-010B
CENTER_NAME    = EARTH
REF_FRAME      = TEME
TIME_SYSTEM    = UTC
MEAN_ELEMENT_THEORY = SGP/SGP4

EPOCH          = 2026-01-11T22:37:29.160768
MEAN_MOTION    = 14.20224034
ECCENTRICITY   = .00601295
INCLINATION    = 98.3972
RA_OF_ASC_NODE = 128.0739
ARG_OF_PERICENTER = 99.1617
MEAN_ANOMALY   = 261.6370

EPHEMERIS_TYPE = 0
CLASSIFICATION_TYPE = U
NORAD_CAT_ID   = 31114
ELEMENT_SET_NO = 999
REV_AT_EPOCH   = 97166
BSTAR          = .75000771E-4
MEAN_MOTION_DOT = .123E-5
MEAN_MOTION_DDOT = 0

CCSDS_OMM_VERS = 2.0
CREATION_DATE  = 
ORIGINATOR     = 

OBJECT_NAME    = COSMO-SKYMED 1
OBJECT_ID      = 2007-023A
CENTER_NAME    = EARTH
REF_FRAME      = TEME
TIME_SYSTEM    = UTC
MEAN_ELEMENT_THEORY = SGP/SGP4

EPOCH          = 2026-01-11T22:56:38.942592
MEAN_MOTION    = 14.96041286
ECCENTRICITY   = .0001477
INCLINATION    = 97.8854
RA_OF_ASC_NODE = 202.5592
ARG_OF_PERICENTER = 78.1257
MEAN_ANOMALY   = 282.0129

EPHEMERIS_TYPE = 0
CLASSIFICATION_TYPE = U
NORAD_CAT_ID   = 31598
ELEMENT_SET_NO = 999
REV_AT_EPOCH   = 642
BSTAR          = .32059604E-3
MEAN_MOTION_DOT = .354E-4
MEAN_MOTION_DDOT = 0

CCSDS_OMM_VERS = 2.0
CREATION_DATE  = 
ORIGINATOR     = 

OBJECT_NAME    = COSMOS 2428
OBJECT_ID      = 2007-029A
CENTER_NAME    = EARTH
REF_FRAME      = TEME
TIME_SYSTEM    = UTC
MEAN_ELEMENT_THEORY = SGP/SGP4

EPOCH          = 2026-01-11T23:15:11.765952
MEAN_MOTION    = 14.12907836
ECCENTRICITY   = .0005471
INCLINATION    = 70.9394
RA_OF_ASC_NODE = 322.4114
ARG_OF_PERICENTER = 342.6533
MEAN_ANOMALY   = 17.4400

EPHEMERIS_TYPE = 0
CLASSIFICATION_TYPE = U
NORAD_CAT_ID   = 31792
ELEMENT_SET_NO = 999
REV_AT_EPOCH   = 95608
BSTAR          = .21223824E-3
MEAN_MOTION_DOT = .347E-5
MEAN_MOTION_DDOT = 0

CCSDS_OMM_VERS = 2.0
CREATION_DATE  = 
ORIGINATOR     = 

OBJECT_NAME    = SL-16 R/B
OBJECT_ID      = 2007-029B
CENTER_NAME    = EARTH
REF_FRAME      = TEME
TIME_SYSTEM    = UTC
MEAN_ELEMENT_THEORY = SGP/SGP4

EPOCH          = 2026-01-12T00:08:56.068800
MEAN_MOTION    = 14.14825268
ECCENTRICITY   = .00022481
INCLINATION    = 70.9769
RA_OF_ASC_NODE = 291.5365
ARG_OF_PERICENTER = 273.4756
MEAN_ANOMALY   = 164.2003

EPHEMERIS_TYPE = 0
CLASSIFICATION_TYPE = U
NORAD_CAT_ID   = 31793
ELEMENT_SET_NO = 999
REV_AT_EPOCH   = 95735
BSTAR          = -.72016501E-4
MEAN_MOTION_DOT = -.187E-5
MEAN_MOTION_DDOT = 0

CCSDS_OMM_VERS = 2.0
CREATION_DATE  = 
ORIGINATOR     = 

OBJECT_NAME    = KORONAS-FOTON
OBJECT_ID      = 2009-003A
CENTER_NAME    = EARTH
REF_FRAME      = TEME
TIME_SYSTEM    = UTC
MEAN_ELEMENT_THEORY = SGP/SGP4

EPOCH          = 2026-01-11T22:32:22.261920
MEAN_MOTION    = 15.41863881
ECCENTRICITY   = .00115477
INCLINATION    = 82.4317
RA_OF_ASC_NODE = 334.7983
ARG_OF_PERICENTER = 13.6789
MEAN_ANOMALY   = 346.4768

EPHEMERIS_TYPE = 0
CLASSIFICATION_TYPE = U
NORAD_CAT_ID   = 33504
ELEMENT_SET_NO = 999
REV_AT_EPOCH   = 93699
BSTAR          = .25536386E-3
MEAN_MOTION_DOT = .10896E-3
MEAN_MOTION_DDOT = 0

CCSDS_OMM_VERS = 2.0
CREATION_DATE  = 
ORIGINATOR     = 

OBJECT_NAME    = CZ-2C R/B
OBJECT_ID      = 2011-030B
CENTER_NAME    = EARTH
REF_FRAME      = TEME
TIME_SYSTEM    = UTC
MEAN_ELEMENT_THEORY = SGP/SGP4

EPOCH          = 2026-01-11T20:40:52.232160
MEAN_MOTION    = 14.81005647
ECCENTRICITY   = .00528096
INCLINATION    = 97.8452
RA_OF_ASC_NODE = 330.3103
ARG_OF_PERICENTER = 173.7291
MEAN_ANOMALY   = 240.5360

EPHEMERIS_TYPE = 0
CLASSIFICATION_TYPE = U
NORAD_CAT_ID   = 37731
ELEMENT_SET_NO = 999
REV_AT_EPOCH   = 78168
BSTAR          = .15737967E-3
MEAN_MOTION_DOT = .1194E-4
MEAN_MOTION_DDOT = 0

CCSDS_OMM_VERS = 2.0
CREATION_DATE  = 
ORIGINATOR     = 

OBJECT_NAME    = H-2A R/B
OBJECT_ID      = 2012-025E
CENTER_NAME    = EARTH
REF_FRAME      = TEME
TIME_SYSTEM    = UTC
MEAN_ELEMENT_THEORY = SGP/SGP4

EPOCH          = 2026-01-11T21:38:01.665888
MEAN_MOTION    = 14.94666552
ECCENTRICITY   = .00460057
INCLINATION    = 98.4635
RA_OF_ASC_NODE = 334.4685
ARG_OF_PERICENTER = 136.9971
MEAN_ANOMALY   = 223.4857

EPHEMERIS_TYPE = 0
CLASSIFICATION_TYPE = U
NORAD_CAT_ID   = 38341
ELEMENT_SET_NO = 999
REV_AT_EPOCH   = 73973
BSTAR          = .3409324E-3
MEAN_MOTION_DOT = .3706E-4
MEAN_MOTION_DDOT = 0

CCSDS_OMM_VERS = 2.0
CREATION_DATE  = 
ORIGINATOR     = 

OBJECT_NAME    = SHIJIAN-16 (SJ-16)
OBJECT_ID      = 2013-057A
CENTER_NAME    = EARTH
REF_FRAME      = TEME
TIME_SYSTEM    = UTC
MEAN_ELEMENT_THEORY = SGP/SGP4

EPOCH          = 2026-01-11T23:26:51.758016
MEAN_MOTION    = 14.92126573
ECCENTRICITY   = .00177932
INCLINATION    = 74.9735
RA_OF_ASC_NODE = 292.4370
ARG_OF_PERICENTER = 249.9626
MEAN_ANOMALY   = 109.9647

EPHEMERIS_TYPE = 0
CLASSIFICATION_TYPE = U
NORAD_CAT_ID   = 39358
ELEMENT_SET_NO = 999
REV_AT_EPOCH   = 66304
BSTAR          = .67411877E-4
MEAN_MOTION_DOT = .658E-5
MEAN_MOTION_DDOT = 0

